{
  "type": "FeatureCollection",
  "features": [
    {
      "type": "Feature",
      "properties": {
        "norad_id": 41824,
        "name": "FENGYUN 1C DEB",
        "group": "fengyun-1c-debris",
        "lat": 70.40845053600206,
        "lon": 28.371185657919614,
        "alt_km": 838.4886253072418,
        "timestamp": "2025-12-15T22:44:29.218544+00:00",
        "meta_object_name": "FENGYUN 1C DEB",
        "meta_object_id": "1999-025EYB",
        "meta_epoch": "2025-12-15T03:51:05.838336",
        "meta_mean_motion": 14.24183147,
        "meta_eccentricity": 0.00575419,
        "meta_inclination": 98.7316,
        "meta_ra_of_asc_node": 53.171,
        "meta_arg_of_pericenter": 220.4112,
        "meta_mean_anomaly": 139.2786,
        "meta_ephemeris_type": 0,
        "meta_classification_type": "U",
        "meta_norad_cat_id": 41824,
        "meta_element_set_no": 999,
        "meta_rev_at_epoch": 47394,
        "meta_bstar": 0.0011518131,
        "meta_mean_motion_dot": 2.656e-05,
        "meta_mean_motion_ddot": 0,
        "tle_line1": "1 41824U 99025EYB 25349.16048424  .00002656  00000+0  11518-2 0  9992",
        "tle_line2": "2 41824  98.7316  53.1710 0057541 220.4112 139.2786 14.24183147473944"
      },
      "geometry": {
        "type": "Point",
        "coordinates": [
          28.371185657919614,
          70.40845053600206
        ]
      }
    },
    {
      "type": "Feature",
      "properties": {
        "norad_id": 41825,
        "name": "FENGYUN 1C DEB",
        "group": "fengyun-1c-debris",
        "lat": -51.81870308003792,
        "lon": 70.25085556060924,
        "alt_km": 818.7135672235991,
        "timestamp": "2025-12-15T22:44:29.218554+00:00",
        "meta_object_name": "FENGYUN 1C DEB",
        "meta_object_id": "1999-025EYC",
        "meta_epoch": "2025-12-13T03:35:17.050560",
        "meta_mean_motion": 14.25096254,
        "meta_eccentricity": 0.0055989,
        "meta_inclination": 98.7431,
        "meta_ra_of_asc_node": 56.1785,
        "meta_arg_of_pericenter": 219.8519,
        "meta_mean_anomaly": 139.8543,
        "meta_ephemeris_type": 0,
        "meta_classification_type": "U",
        "meta_norad_cat_id": 41825,
        "meta_element_set_no": 999,
        "meta_rev_at_epoch": 47354,
        "meta_bstar": 0.0024270125,
        "meta_mean_motion_dot": 5.744e-05,
        "meta_mean_motion_ddot": 0,
        "tle_line1": "1 41825U 99025EYC 25347.14950290  .00005744  00000+0  24270-2 0  9992",
        "tle_line2": "2 41825  98.7431  56.1785 0055989 219.8519 139.8543 14.25096254473541"
      },
      "geometry": {
        "type": "Point",
        "coordinates": [
          70.25085556060924,
          -51.81870308003792
        ]
      }
    },
    {
      "type": "Feature",
      "properties": {
        "norad_id": 41826,
        "name": "FENGYUN 1C DEB",
        "group": "fengyun-1c-debris",
        "lat": -79.14078860761681,
        "lon": -177.53838733689835,
        "alt_km": 793.4964434101757,
        "timestamp": "2025-12-15T22:44:29.218564+00:00",
        "meta_object_name": "FENGYUN 1C DEB",
        "meta_object_id": "1999-025EYD",
        "meta_epoch": "2025-12-14T15:08:55.143456",
        "meta_mean_motion": 14.23763701,
        "meta_eccentricity": 0.00559449,
        "meta_inclination": 98.7337,
        "meta_ra_of_asc_node": 54.4126,
        "meta_arg_of_pericenter": 218.18,
        "meta_mean_anomaly": 141.541,
        "meta_ephemeris_type": 0,
        "meta_classification_type": "U",
        "meta_norad_cat_id": 41826,
        "meta_element_set_no": 999,
        "meta_rev_at_epoch": 47387,
        "meta_bstar": 0.0014156702,
        "meta_mean_motion_dot": 3.245e-05,
        "meta_mean_motion_ddot": 0,
        "tle_line1": "1 41826U 99025EYD 25348.63119379  .00003245  00000+0  14157-2 0  9990",
        "tle_line2": "2 41826  98.7337  54.4126 0055944 218.1800 141.5410 14.23763701473878"
      },
      "geometry": {
        "type": "Point",
        "coordinates": [
          -177.53838733689835,
          -79.14078860761681
        ]
      }
    },
    {
      "type": "Feature",
      "properties": {
        "norad_id": 41827,
        "name": "FENGYUN 1C DEB",
        "group": "fengyun-1c-debris",
        "lat": 4.276311780835073,
        "lon": -120.1971314132694,
        "alt_km": 773.0383960809249,
        "timestamp": "2025-12-15T22:44:29.218574+00:00",
        "meta_object_name": "FENGYUN 1C DEB",
        "meta_object_id": "1999-025EYE",
        "meta_epoch": "2025-12-15T03:23:04.259328",
        "meta_mean_motion": 14.25294214,
        "meta_eccentricity": 0.00584329,
        "meta_inclination": 98.7435,
        "meta_ra_of_asc_node": 58.3398,
        "meta_arg_of_pericenter": 206.8704,
        "meta_mean_anomaly": 152.9445,
        "meta_ephemeris_type": 0,
        "meta_classification_type": "U",
        "meta_norad_cat_id": 41827,
        "meta_element_set_no": 999,
        "meta_rev_at_epoch": 47365,
        "meta_bstar": 0.0012437084,
        "meta_mean_motion_dot": 2.936e-05,
        "meta_mean_motion_ddot": 0,
        "tle_line1": "1 41827U 99025EYE 25349.14102152  .00002936  00000+0  12437-2 0  9994",
        "tle_line2": "2 41827  98.7435  58.3398 0058432 206.8704 152.9445 14.25294214473654"
      },
      "geometry": {
        "type": "Point",
        "coordinates": [
          -120.1971314132694,
          4.276311780835073
        ]
      }
    },
    {
      "type": "Feature",
      "properties": {
        "norad_id": 41828,
        "name": "FENGYUN 1C DEB",
        "group": "fengyun-1c-debris",
        "lat": 15.568328451922003,
        "lon": 115.68322117487048,
        "alt_km": 744.3012302619782,
        "timestamp": "2025-12-15T22:44:29.218584+00:00",
        "meta_object_name": "FENGYUN 1C DEB",
        "meta_object_id": "1999-025EYF",
        "meta_epoch": "2025-12-15T07:46:54.971904",
        "meta_mean_motion": 14.51805727,
        "meta_eccentricity": 0.00385224,
        "meta_inclination": 98.9211,
        "meta_ra_of_asc_node": 117.53,
        "meta_arg_of_pericenter": 168.666,
        "meta_mean_anomaly": 191.541,
        "meta_ephemeris_type": 0,
        "meta_classification_type": "U",
        "meta_norad_cat_id": 41828,
        "meta_element_set_no": 999,
        "meta_rev_at_epoch": 47501,
        "meta_bstar": 0.0028981311,
        "meta_mean_motion_dot": 0.0001174,
        "meta_mean_motion_ddot": 0,
        "tle_line1": "1 41828U 99025EYF 25349.32424736  .00011740  00000+0  28981-2 0  9994",
        "tle_line2": "2 41828  98.9211 117.5300 0038522 168.6660 191.5410 14.51805727475013"
      },
      "geometry": {
        "type": "Point",
        "coordinates": [
          115.68322117487048,
          15.568328451922003
        ]
      }
    },
    {
      "type": "Feature",
      "properties": {
        "norad_id": 41829,
        "name": "FENGYUN 1C DEB",
        "group": "fengyun-1c-debris",
        "lat": -38.0281642293041,
        "lon": 66.06412037022952,
        "alt_km": 829.2507360295795,
        "timestamp": "2025-12-15T22:44:29.218595+00:00",
        "meta_object_name": "FENGYUN 1C DEB",
        "meta_object_id": "1999-025EYG",
        "meta_epoch": "2025-12-15T04:23:17.827872",
        "meta_mean_motion": 14.25140838,
        "meta_eccentricity": 0.00565856,
        "meta_inclination": 98.7451,
        "meta_ra_of_asc_node": 58.388,
        "meta_arg_of_pericenter": 212.0005,
        "meta_mean_anomaly": 147.7733,
        "meta_ephemeris_type": 0,
        "meta_classification_type": "U",
        "meta_norad_cat_id": 41829,
        "meta_element_set_no": 999,
        "meta_rev_at_epoch": 47342,
        "meta_bstar": 0.0011576279,
        "meta_mean_motion_dot": 2.719e-05,
        "meta_mean_motion_ddot": 0,
        "tle_line1": "1 41829U 99025EYG 25349.18284523  .00002719  00000+0  11576-2 0  9995",
        "tle_line2": "2 41829  98.7451  58.3880 0056585 212.0005 147.7733 14.25140838473429"
      },
      "geometry": {
        "type": "Point",
        "coordinates": [
          66.06412037022952,
          -38.0281642293041
        ]
      }
    },
    {
      "type": "Feature",
      "properties": {
        "norad_id": 41830,
        "name": "FENGYUN 1C DEB",
        "group": "fengyun-1c-debris",
        "lat": 24.40899452620175,
        "lon": -114.06227976738008,
        "alt_km": 778.5770754556852,
        "timestamp": "2025-12-15T22:44:29.218604+00:00",
        "meta_object_name": "FENGYUN 1C DEB",
        "meta_object_id": "1999-025EYH",
        "meta_epoch": "2025-12-14T03:55:36.712704",
        "meta_mean_motion": 14.26465063,
        "meta_eccentricity": 0.00547144,
        "meta_inclination": 98.7531,
        "meta_ra_of_asc_node": 60.1454,
        "meta_arg_of_pericenter": 212.5155,
        "meta_mean_anomaly": 147.2651,
        "meta_ephemeris_type": 0,
        "meta_classification_type": "U",
        "meta_norad_cat_id": 41830,
        "meta_element_set_no": 999,
        "meta_rev_at_epoch": 47294,
        "meta_bstar": 0.0019525063,
        "meta_mean_motion_dot": 4.734e-05,
        "meta_mean_motion_ddot": 0,
        "tle_line1": "1 41830U 99025EYH 25348.16361936  .00004734  00000+0  19525-2 0  9999",
        "tle_line2": "2 41830  98.7531  60.1454 0054714 212.5155 147.2651 14.26465063472942"
      },
      "geometry": {
        "type": "Point",
        "coordinates": [
          -114.06227976738008,
          24.40899452620175
        ]
      }
    }
  ]
}